*******************************************************************************
Ephemeris / WWW_USER Mon Mar 10 07:13:19 2025 Pasadena, USA      / Horizons    
*******************************************************************************
Target body name: (2018 OG)                       {source: JPL#12}
Center body name: Earth (399)                     {source: DE441}
Center-site name: Mauna Kea
*******************************************************************************
Start time      : A.D. 2018-Nov-08 03:54:00.0000 UT      
Stop  time      : A.D. 2018-Nov-08 16:17:00.0000 UT      
Step-size       : 1 minutes
*******************************************************************************
Target pole/equ : undefined
Target radii    : undefined                                                    
Center geodetic : 204.5278, 19.8260847, 4.21024   {E-lon(deg),Lat(deg),Alt(km)}
Center cylindric: 204.5278, 6006.35451, 2151.0229 {E-lon(deg),Dxy(km),Dz(km)}
Center pole/equ : ITRF93                          {East-longitude positive}
Center radii    : 6378.137, 6378.137, 6356.752 km {Equator_a, b, pole_c}       
Target primary  : Sun
Vis. interferer : MOON (R_eq= 1737.400) km        {source: DE441}
Rel. light bend : Sun                             {source: DE441}
Rel. lght bnd GM: 1.3271E+11 km^3/s^2                                          
Small-body perts: Yes                             {source: SB441-N16}
Atmos refraction: NO (AIRLESS)
RA format       : HMS
Time format     : CAL 
Calendar mode   : Mixed Julian/Gregorian
RTS-only print  : NO       
EOP file        : eop.250307.p250603                                           
EOP coverage    : DATA-BASED 1962-JAN-20 TO 2025-MAR-07. PREDICTS-> 2025-JUN-02
Units conversion: 1 au= 149597870.700 km, c= 299792.458 km/s, 1 day= 86400.0 s 
Table cut-offs 1: Elevation (-90.0deg=NO ),Airmass (>38.000=NO), Daylight (YES)
Table cut-offs 2: Solar elongation (  0.0,180.0=NO ),Local Hour Angle( 0.0=NO )
Table cut-offs 3: RA/DEC angular rate (     0.0=NO )                           
*******************************************************************************
Initial IAU76/J2000 heliocentric ecliptic osculating elements (au, days, deg.):
  EPOCH=  2458389.5 ! 2018-Sep-28.00 (TDB)         Residual RMS= .17662        
   EC= .5817218672922059   QR= .9873203561553971   TP= 2458366.942240702       
   OM= 131.0345430575832   W=  220.7633135105564   IN= 9.123860581277821       
  Equivalent ICRF heliocentric cartesian coordinates (au, au/d):
   X= 9.625437195102586E-01  Y= 3.686106454146055E-01  Z=-5.877845729655690E-03
  VX=-3.555418036941177E-03 VY= 1.979451357965206E-02 VZ= 6.659913004156397E-03
Asteroid physical parameters (km, seconds, rotational period in hours):        
   GM= n.a.                RAD= n.a.               ROTPER= n.a.                
   H= 23.6                 G= .150                 B-V= n.a.                   
                           ALBEDO= n.a.            STYP= n.a.                  
*******************************************************************************
 Date__(UT)__HR:MN     R.A._________(ICRF)_________DEC
******************************************************
$$SOE
 2018-Nov-08 08:00     06 26 52.662631 -03 36 42.38787
 2018-Nov-08 08:01     06 26 52.612229 -03 36 42.02338
 2018-Nov-08 08:02     06 26 52.561800 -03 36 41.65888
 2018-Nov-08 08:03     06 26 52.511345 -03 36 41.29437
 2018-Nov-08 08:04     06 26 52.460863 -03 36 40.92985
 2018-Nov-08 08:05     06 26 52.410356 -03 36 40.56532
 2018-Nov-08 08:06     06 26 52.359822 -03 36 40.20078
 2018-Nov-08 08:07     06 26 52.309261 -03 36 39.83622
 2018-Nov-08 08:08     06 26 52.258675 -03 36 39.47165
 2018-Nov-08 08:09     06 26 52.208062 -03 36 39.10707
 2018-Nov-08 08:10     06 26 52.157423 -03 36 38.74248
 2018-Nov-08 08:11     06 26 52.106757 -03 36 38.37788
 2018-Nov-08 08:12     06 26 52.056066 -03 36 38.01327
 2018-Nov-08 08:13     06 26 52.005348 -03 36 37.64864
 2018-Nov-08 08:14     06 26 51.954604 -03 36 37.28400
 2018-Nov-08 08:15     06 26 51.903833 -03 36 36.91935
 2018-Nov-08 08:16     06 26 51.853037 -03 36 36.55469
 2018-Nov-08 08:17     06 26 51.802215 -03 36 36.19001
 2018-Nov-08 08:18     06 26 51.751366 -03 36 35.82532
 2018-Nov-08 08:19     06 26 51.700491 -03 36 35.46062
 2018-Nov-08 08:20     06 26 51.649590 -03 36 35.09591
 2018-Nov-08 08:21     06 26 51.598664 -03 36 34.73118
 2018-Nov-08 08:22     06 26 51.547711 -03 36 34.36644
 2018-Nov-08 08:23     06 26 51.496732 -03 36 34.00169
 2018-Nov-08 08:24     06 26 51.445727 -03 36 33.63692
 2018-Nov-08 08:25     06 26 51.394696 -03 36 33.27214
 2018-Nov-08 08:26     06 26 51.343639 -03 36 32.90735
 2018-Nov-08 08:27     06 26 51.292556 -03 36 32.54254
 2018-Nov-08 08:28     06 26 51.241447 -03 36 32.17772
 2018-Nov-08 08:29     06 26 51.190312 -03 36 31.81288
 2018-Nov-08 08:30     06 26 51.139152 -03 36 31.44804
 2018-Nov-08 08:31     06 26 51.087965 -03 36 31.08317
 2018-Nov-08 08:32     06 26 51.036753 -03 36 30.71830
 2018-Nov-08 08:33     06 26 50.985515 -03 36 30.35341
 2018-Nov-08 08:34     06 26 50.934251 -03 36 29.98850
 2018-Nov-08 08:35     06 26 50.882961 -03 36 29.62358
 2018-Nov-08 08:36     06 26 50.831646 -03 36 29.25865
 2018-Nov-08 08:37     06 26 50.780305 -03 36 28.89370
 2018-Nov-08 08:38     06 26 50.728938 -03 36 28.52874
 2018-Nov-08 08:39     06 26 50.677546 -03 36 28.16376
 2018-Nov-08 08:40     06 26 50.626128 -03 36 27.79877
 2018-Nov-08 08:41     06 26 50.574685 -03 36 27.43376
 2018-Nov-08 08:42     06 26 50.523215 -03 36 27.06874
 2018-Nov-08 08:43     06 26 50.471721 -03 36 26.70370
 2018-Nov-08 08:44     06 26 50.420201 -03 36 26.33865
 2018-Nov-08 08:45     06 26 50.368655 -03 36 25.97358
 2018-Nov-08 08:46     06 26 50.317084 -03 36 25.60850
 2018-Nov-08 08:47     06 26 50.265488 -03 36 25.24340
 2018-Nov-08 08:48     06 26 50.213866 -03 36 24.87828
 2018-Nov-08 08:49     06 26 50.162219 -03 36 24.51315
 2018-Nov-08 08:50     06 26 50.110546 -03 36 24.14800
 2018-Nov-08 08:51     06 26 50.058848 -03 36 23.78284
 2018-Nov-08 08:52     06 26 50.007125 -03 36 23.41766
 2018-Nov-08 08:53     06 26 49.955377 -03 36 23.05247
 2018-Nov-08 08:54     06 26 49.903604 -03 36 22.68726
 2018-Nov-08 08:55     06 26 49.851805 -03 36 22.32203
 2018-Nov-08 08:56     06 26 49.799981 -03 36 21.95679
 2018-Nov-08 08:57     06 26 49.748133 -03 36 21.59153
 2018-Nov-08 08:58     06 26 49.696259 -03 36 21.22625
 2018-Nov-08 08:59     06 26 49.644360 -03 36 20.86096
 2018-Nov-08 09:00     06 26 49.592437 -03 36 20.49564
 2018-Nov-08 09:01     06 26 49.540488 -03 36 20.13032
 2018-Nov-08 09:02     06 26 49.488514 -03 36 19.76497
 2018-Nov-08 09:03     06 26 49.436516 -03 36 19.39961
 2018-Nov-08 09:04     06 26 49.384493 -03 36 19.03423
 2018-Nov-08 09:05     06 26 49.332445 -03 36 18.66884
 2018-Nov-08 09:06     06 26 49.280372 -03 36 18.30342
 2018-Nov-08 09:07     06 26 49.228275 -03 36 17.93799
 2018-Nov-08 09:08     06 26 49.176153 -03 36 17.57254
 2018-Nov-08 09:09     06 26 49.124006 -03 36 17.20707
 2018-Nov-08 09:10     06 26 49.071835 -03 36 16.84159
 2018-Nov-08 09:11     06 26 49.019639 -03 36 16.47609
 2018-Nov-08 09:12     06 26 48.967419 -03 36 16.11057
 2018-Nov-08 09:13     06 26 48.915174 -03 36 15.74503
 2018-Nov-08 09:14     06 26 48.862905 -03 36 15.37947
 2018-Nov-08 09:15     06 26 48.810612 -03 36 15.01390
 2018-Nov-08 09:16     06 26 48.758294 -03 36 14.64830
 2018-Nov-08 09:17     06 26 48.705952 -03 36 14.28269
 2018-Nov-08 09:18     06 26 48.653586 -03 36 13.91706
 2018-Nov-08 09:19     06 26 48.601196 -03 36 13.55141
 2018-Nov-08 09:20     06 26 48.548782 -03 36 13.18575
 2018-Nov-08 09:21     06 26 48.496343 -03 36 12.82006
 2018-Nov-08 09:22     06 26 48.443880 -03 36 12.45435
 2018-Nov-08 09:23     06 26 48.391394 -03 36 12.08863
 2018-Nov-08 09:24     06 26 48.338883 -03 36 11.72289
 2018-Nov-08 09:25     06 26 48.286349 -03 36 11.35712
 2018-Nov-08 09:26     06 26 48.233791 -03 36 10.99134
 2018-Nov-08 09:27     06 26 48.181209 -03 36 10.62554
 2018-Nov-08 09:28     06 26 48.128603 -03 36 10.25972
 2018-Nov-08 09:29     06 26 48.075974 -03 36 09.89388
 2018-Nov-08 09:30     06 26 48.023321 -03 36 09.52802
 2018-Nov-08 09:31     06 26 47.970644 -03 36 09.16214
 2018-Nov-08 09:32     06 26 47.917944 -03 36 08.79624
 2018-Nov-08 09:33     06 26 47.865220 -03 36 08.43032
 2018-Nov-08 09:34     06 26 47.812473 -03 36 08.06438
 2018-Nov-08 09:35     06 26 47.759702 -03 36 07.69841
 2018-Nov-08 09:36     06 26 47.706909 -03 36 07.33243
 2018-Nov-08 09:37     06 26 47.654091 -03 36 06.96643
 2018-Nov-08 09:38     06 26 47.601251 -03 36 06.60041
 2018-Nov-08 09:39     06 26 47.548388 -03 36 06.23437
 2018-Nov-08 09:40     06 26 47.495501 -03 36 05.86831
 2018-Nov-08 09:41     06 26 47.442591 -03 36 05.50222
 2018-Nov-08 09:42     06 26 47.389658 -03 36 05.13612
 2018-Nov-08 09:43     06 26 47.336703 -03 36 04.77000
 2018-Nov-08 09:44     06 26 47.283724 -03 36 04.40385
 2018-Nov-08 09:45     06 26 47.230723 -03 36 04.03768
 2018-Nov-08 09:46     06 26 47.177699 -03 36 03.67150
 2018-Nov-08 09:47     06 26 47.124652 -03 36 03.30529
 2018-Nov-08 09:48     06 26 47.071582 -03 36 02.93906
 2018-Nov-08 09:49     06 26 47.018490 -03 36 02.57280
 2018-Nov-08 09:50     06 26 46.965375 -03 36 02.20653
 2018-Nov-08 09:51     06 26 46.912238 -03 36 01.84024
 2018-Nov-08 09:52     06 26 46.859079 -03 36 01.47392
 2018-Nov-08 09:53     06 26 46.805897 -03 36 01.10758
 2018-Nov-08 09:54     06 26 46.752692 -03 36 00.74122
 2018-Nov-08 09:55     06 26 46.699466 -03 36 00.37484
 2018-Nov-08 09:56     06 26 46.646217 -03 36 00.00844
 2018-Nov-08 09:57     06 26 46.592946 -03 35 59.64201
 2018-Nov-08 09:58     06 26 46.539653 -03 35 59.27556
 2018-Nov-08 09:59     06 26 46.486338 -03 35 58.90909
 2018-Nov-08 10:00     06 26 46.433001 -03 35 58.54260
 2018-Nov-08 10:01     06 26 46.379643 -03 35 58.17608
 2018-Nov-08 10:02     06 26 46.326262 -03 35 57.80955
